[{"name":"PROBA-1","line1":"1 26958U 01049B   26177.56206497  .00002846  00000+0  18520-3 0  9994","line2":"2 26958  97.9604 186.4214 0056433  91.1770 269.5923 15.07535853345032"},{"name":"CUTE-1 (CO-55)","line1":"1 27844U 03031E   26176.95866144  .00000278  00000+0  13913-3 0  9993","line2":"2 27844  98.6736 185.4073 0010067 153.3060 206.8639 14.24340671192925"},{"name":"CUBESAT XI-IV (CO-57)","line1":"1 27848U 03031J   26176.95152158  .00000236  00000+0  12262-3 0  9990","line2":"2 27848  98.6767 185.1059 0009590 171.2746 188.8601 14.23625133192626"},{"name":"APRIZESAT 4","line1":"1 35684U 09041D   26177.69744380  .00000574  00000+0  75198-4 0  9993","line2":"2 35684  98.1411 253.2074 0041952 291.4115  68.2625 14.83890494912774"},{"name":"APRIZESAT 3","line1":"1 35686U 09041F   26177.39448204  .00001058  00000+0  95982-4 0  9999","line2":"2 35686  98.2075 331.0599 0062539  37.7097 322.8481 14.96268937917751"},{"name":"PROBA-2","line1":"1 36037U 09059B   26177.45639152  .00000195  00000+0  56041-4 0  9994","line2":"2 36037  98.2451   0.6807 0011996 250.3098 109.6805 14.54866114882876"},{"name":"APRIZESAT 5","line1":"1 37792U 11044E   26177.73566010  .00000995  00000+0  13287-3 0  9995","line2":"2 37792  98.2452 111.0467 0051559 333.4722  26.3852 14.81094803800203"},{"name":"APRIZESAT 6","line1":"1 37793U 11044F   26177.70037381  .00000741  00000+0  11153-3 0  9996","line2":"2 37793  98.2358  88.3939 0044285  56.5276   9.7041 14.76929383798557"},{"name":"PROBA-V","line1":"1 39159U 13021A   26177.67787602  .00000082  00000+0  53805-4 0  9994","line2":"2 39159  98.3589 155.8162 0005398 101.7097 258.4688 14.23599058682462"},{"name":"APRIZESAT 7","line1":"1 39416U 13066A   26177.61295135  .00001174  00000+0  12137-3 0  9993","line2":"2 39416  97.7710 130.6973 0035821 177.5782 182.5616 14.91581728682631"},{"name":"APRIZESAT 8","line1":"1 39425U 13066K   26177.42346483  .00000847  00000+0  97678-4 0  9995","line2":"2 39425  97.8223 124.7627 0044380 255.1094 104.5205 14.87667882681043"},{"name":"BUGSAT-1 (TITA)","line1":"1 40014U 14033E   26177.54321495  .00007356  00000+0  38631-3 0  9990","line2":"2 40014  98.0427 270.6395 0028671 146.9605 213.3425 15.15685948657255"},{"name":"SAUDISAT 4","line1":"1 40016U 14033G   26177.38406565  .00000592  00000+0  84621-4 0  9992","line2":"2 40016  97.7592 323.2010 0045762  44.8768 315.6129 14.79555592647437"},{"name":"APRIZESAT 9","line1":"1 40018U 14033J   26177.64210676  .00000705  00000+0  11067-3 0  9998","line2":"2 40018  97.9070 310.6101 0066439 168.7380 191.5334 14.74227149644955"},{"name":"APRIZESAT 10","line1":"1 40019U 14033K   26177.58245521  .00000469  00000+0  81614-4 0  9992","line2":"2 40019  97.9659 304.3329 0077550 243.3121 116.0131 14.70890794643639"},{"name":"TECHDEMOSAT-1 (TDS-1)","line1":"1 40076U 14037H   26177.67969970  .00007767  00000+0  43883-3 0  9993","line2":"2 40076  98.3811 170.8339 0005091 223.3831 136.6997 15.13424603649668"},{"name":"TECHNOSAT","line1":"1 42829U 17042E   26177.42456088  .00003157  00000+0  22568-3 0  9990","line2":"2 42829  97.4293 334.7318 0019289  65.5257 294.7980 15.05014135488092"},{"name":"FLYING LAPTOP","line1":"1 42831U 17042G   26177.65074079  .00002661  00000+0  21104-3 0  9998","line2":"2 42831  97.4723 332.8218 0019956  91.4280 268.9231 15.01203041487875"},{"name":"HAWK-A","line1":"1 43765U 18099H   26177.40494853  .00007107  00000+0  28548-3 0  9996","line2":"2 43765  97.3913 229.5208 0033182 251.7152 108.0475 15.24744440414501"},{"name":"HAWK-B","line1":"1 43794U 18099AN  26177.70030748  .00005906  00000+0  25168-3 0  9990","line2":"2 43794  97.3963 229.2073 0030229 269.6431  90.1342 15.22920734414483"},{"name":"HAWK-C","line1":"1 43799U 18099AT  26177.42606492  .00008893  00000+0  31890-3 0  9996","line2":"2 43799  97.3890 230.4994 0038787 251.5822 108.1199 15.28225392415322"},{"name":"SALSAT","line1":"1 46495U 20068K   26177.49875037  .00007768  00000+0  27079-3 0  9995","line2":"2 46495  97.8850 181.1309 0007809 268.2261  91.8084 15.29924136316788"},{"name":"HAWK-2C","line1":"1 47502U 21006CT  26177.54124857  .00006831  00000+0  20479-3 0  9998","line2":"2 47502  97.2278 221.6646 0007693 154.8081 205.3539 15.34770530300931"},{"name":"HAWK-2A","line1":"1 47505U 21006CW  26177.08726285  .00007331  00000+0  21958-3 0  9992","line2":"2 47505  97.2322 221.9027 0007110 159.0181 201.1356 15.34779347300860"},{"name":"HAWK-2B","line1":"1 47508U 21006CZ  26177.53861239  .00007583  00000+0  22623-3 0  9993","line2":"2 47508  97.2189 220.6618 0007747 156.4049 203.7551 15.34887782300932"},{"name":"HAWK-3B","line1":"1 48931U 21059BE  26177.50273351  .00044554  00000+0  36589-3 0  9996","line2":"2 48931  97.6655  15.0969 0003157 281.6174  78.4733 15.70333420279312"},{"name":"HAWK-3C","line1":"1 48948U 21059BX  26177.50240875  .00042877  00000+0  35218-3 0  9993","line2":"2 48948  97.6775  20.7988 0003401 283.1366  76.9516 15.70335728279314"},{"name":"HAWK-3A","line1":"1 48957U 21059CG  26177.50226668  .00041531  00000+0  34137-3 0  9992","line2":"2 48957  97.6719  17.9958 0003345 283.4844  76.6044 15.70325391279316"},{"name":"HAWK-5C","line1":"1 52754U 22057Y   26177.39580571  .00019842  00000+0  33459-3 0  9990","line2":"2 52754  97.6604 337.6588 0004353  53.5583 306.6069 15.51702574227773"},{"name":"HAWK-5B","line1":"1 52756U 22057AA  26177.39564233  .00019926  00000+0  33592-3 0  9990","line2":"2 52756  97.6613 336.0087 0004999  45.8479 314.3183 15.51705775227775"}]